0426P         2023 09 14.1712  2.672070  0.161298  119.1577  280.5222   17.7740  20220223  13.5  4.0  426P/PANSTARRS                                           MPEC 2021-Y10
0428P         2021 05 14.6651  1.674171  0.519504   36.8186  299.3365    8.5150  20220223  15.0  4.0  428P/Gibbs                                               MPEC 2022-C56
0429P         2022 01  2.1380  1.806228  0.491283   75.5364  322.0733    7.5220  20220223  15.5  4.0  429P/LINEAR-Hill                                         MPEC 2022-C56
0430P         2021 12  2.2228  1.554629  0.499628   94.5016   54.6724    4.4749  20220223  16.5  4.0  430P/Scotti                                              MPEC 2022-CN4
0431P         2022 02 13.3665  1.813680  0.477695  199.8560  202.8463   22.3921  20220223  14.0  4.0  431P/Scotti                                              MPEC 2022-D36
0432P         2021 08 30.3882  2.300834  0.242092  105.2461  239.1436   10.0689  20220223  17.0  4.0  432P/PANSTARRS                                           MPEC 2021-U31
0434P         2021 10 25.7963  2.995481  0.274298  128.0484  288.9673    6.3397  20220223  13.0  4.0  434P/Tenagra                                             MPEC 2022-D36
0435P         2021 07 27.4679  2.056339  0.318739  244.1511   98.5500   18.8826  20220223  17.0  4.0  435P/PANSTARRS                                           MPEC 2021-W31
0436P         2021 12  8.5034  1.957618  0.669854  282.5960   87.1900   20.2103  20220223  14.5  4.0  436P/Garradd                                             MPEC 2022-C56
0437P         2022 08 18.4085  3.400223  0.254075  206.7078  245.8688    3.6897  20220223  13.0  4.0  437P/PANSTARRS                                           MPEC 2021-Y10
0438P         2020 04  5.3649  2.247345  0.415786   58.9368  260.1561    8.2883  20220223  14.5  4.0  438P/Christensen                                         MPEC 2021-W47
0439P         2021 08 26.0985  1.850220  0.469459  341.9950   56.4177    7.1143  20220223  13.5  4.0  439P/LINEAR                                              MPEC 2022-C56
0440P         2022 03 29.9556  2.056231  0.760474  183.3205  328.8822   12.3395  20220223  15.0  2.0  440P/Kobayashi                                           MPEC 2022-D36
0001I         2017 09  9.4886  0.255240  1.199252  241.6845   24.5997  122.6778  20170904  23.0  2.0  1I/`Oumuamua                                             MPC107687
0002I         2019 12  8.5549  2.006548  3.356636  209.1251  308.1480   44.0527  20191223  11.0  4.0  2I/Borisov                                               MPEC 2020-K19
